[{"OBJECT_NAME":"OBJECT D","OBJECT_ID":"2025-108D","EPOCH":"2026-03-09T23:55:58.918944","MEAN_MOTION":15.17741465,"ECCENTRICITY":0.00119931,"INCLINATION":97.4751,"RA_OF_ASC_NODE":145.8386,"ARG_OF_PERICENTER":357.4422,"MEAN_ANOMALY":2.6748,"EPHEMERIS_TYPE":0,"CLASSIFICATION_TYPE":"U","NORAD_CAT_ID":64090,"ELEMENT_SET_NO":999,"REV_AT_EPOCH":4431,"BSTAR":0.00035350679,"MEAN_MOTION_DOT":7.081e-5,"MEAN_MOTION_DDOT":0},{"OBJECT_NAME":"CZ-6A DEB","OBJECT_ID":"2024-140YJ","EPOCH":"2026-03-09T12:57:52.080768","MEAN_MOTION":14.93904112,"ECCENTRICITY":0.01017322,"INCLINATION":88.9655,"RA_OF_ASC_NODE":277.0683,"ARG_OF_PERICENTER":120.9079,"MEAN_ANOMALY":240.2204,"EPHEMERIS_TYPE":0,"CLASSIFICATION_TYPE":"U","NORAD_CAT_ID":61417,"ELEMENT_SET_NO":999,"REV_AT_EPOCH":8080,"BSTAR":0.0018816098,"MEAN_MOTION_DOT":0.00022222,"MEAN_MOTION_DDOT":0}]
